[Satellite]
VERSION=1.1
NAME=QBITO
NICKNAME=QBITO
TLE1=1 42728U 98067MH  18021.14604441  .00022033  00000-0  23574-3 0  9993
TLE2=2 42728  51.6401  23.5480 0003767  49.0223 311.1097 15.63789435 37291
